{
    "links": {
        "self": "http://www.neowsapp.com/rest/v1/neo/54054369?api_key=iIulBulltgU6a56xZRHN4H3l9WmuAYTsLGpBGhQ2"
    },
    "id": "54054369",
    "neo_reference_id": "54054369",
    "name": "(2020 RZ7)",
    "designation": "2020 RZ7",
    "nasa_jpl_url": "http://ssd.jpl.nasa.gov/sbdb.cgi?sstr=54054369",
    "absolute_magnitude_h": 25.239,
    "estimated_diameter": {
        "kilometers": {
            "estimated_diameter_min": 0.0238097577,
            "estimated_diameter_max": 0.0532402368
        },
        "meters": {
            "estimated_diameter_min": 23.8097577426,
            "estimated_diameter_max": 53.2402368403
        },
        "miles": {
            "estimated_diameter_min": 0.014794693,
            "estimated_diameter_max": 0.0330819392
        },
        "feet": {
            "estimated_diameter_min": 78.1160055923,
            "estimated_diameter_max": 174.672698635
        }
    },
    "is_potentially_hazardous_asteroid": false,
    "close_approach_data": [
        {
            "close_approach_date": "2020-09-14",
            "close_approach_date_full": "2020-Sep-14 08:00",
            "epoch_date_close_approach": 1600070400000,
            "relative_velocity": {
                "kilometers_per_second": "4.1529140418",
                "kilometers_per_hour": "14950.4905505365",
                "miles_per_hour": "9289.6534201375"
            },
            "miss_distance": {
                "astronomical": "0.1619427087",
                "lunar": "62.9957136843",
                "kilometers": "24226284.283550469",
                "miles": "15053515.0130317122"
            },
            "orbiting_body": "Earth"
        }
    ],
    "orbital_data": {
        "orbit_id": "2",
        "orbit_determination_date": "2020-10-02 06:44:00",
        "first_observation_date": "2020-09-14",
        "last_observation_date": "2020-09-25",
        "data_arc_in_days": 11,
        "observations_used": 20,
        "orbit_uncertainty": "8",
        "minimum_orbit_intersection": ".155888",
        "jupiter_tisserand_invariant": "4.141",
        "epoch_osculation": "2459108.5",
        "eccentricity": ".3172980403571594",
        "semi_major_axis": "1.697172995623287",
        "inclination": "6.837418970392833",
        "ascending_node_longitude": "4.567604728313365",
        "orbital_period": "807.5837958543474",
        "perihelion_distance": "1.158663329964928",
        "perihelion_argument": "343.5787393340145",
        "aphelion_distance": "2.235682661281646",
        "perihelion_time": "2459100.476113454303",
        "mean_anomaly": "3.576841401820173",
        "mean_motion": ".4457741745785699",
        "equinox": "J2000",
        "orbit_class": {
            "orbit_class_type": "AMO",
            "orbit_class_description": "Near-Earth asteroid orbits similar to that of 1221 Amor",
            "orbit_class_range": "1.017 AU < q (perihelion) < 1.3 AU"
        }
    },
    "is_sentry_object": false
}